{
  "generatedAtUtc": "2026-03-17T12:19:50.754Z",
  "provider": "starlink",
  "sourceRootHint": "../tle_data",
  "sourceFile": "starlink/json/starlink_20260316.json",
  "sourceRecordCount": 9839,
  "sampledRecordCount": 1846,
  "replayWindowStartUtc": "2026-03-16T22:02:38.406Z",
  "replayWindowDurationSec": 18000,
  "bootstrapStartOffsetSec": 900,
  "observer": {
    "latDeg": 24.9441667,
    "lonDeg": 121.3713889,
    "altKm": 0.05
  },
  "selectionPolicy": {
    "mode": "observer-local-pass",
    "serviceMinElevationDeg": 25,
    "analysisWindowSec": 18000,
    "rankingPolicyId": "per-pass-diversity-peak-elevation",
    "raanBinDeg": 1,
    "samePassThresholdSec": 600
  },
  "replayModeSupport": {
    "researchDefault": true,
    "demoLoopSupported": true
  },
  "records": [
    {
      "objectName": "STARLINK-34945",
      "objectId": "2025-175M",
      "noradId": 65185,
      "epochUtc": "2026-03-16T21:22:33.213216Z",
      "meanMotionRevPerDay": 15.05660078,
      "eccentricity": 0.0002538,
      "inclinationDeg": 97.6027,
      "raanDeg": 309.7492,
      "argPerigeeDeg": 87.1839,
      "meanAnomalyDeg": 272.9679,
      "bstar": 0.00029506,
      "meanMotionDot": 0.00004201,
      "meanMotionDdot": 0,
      "elementSetNo": 999,
      "revAtEpoch": 3372
    },
    {
      "objectName": "STARLINK-34866",
      "objectId": "2025-175R",
      "noradId": 65189,
      "epochUtc": "2026-03-16T21:06:37.133280Z",
      "meanMotionRevPerDay": 15.0564896,
      "eccentricity": 0.00024,
      "inclinationDeg": 97.6017,
      "raanDeg": 309.7642,
      "argPerigeeDeg": 79.31,
      "meanAnomalyDeg": 280.8397,
      "bstar": 0.00021855,
      "meanMotionDot": 0.00003094,
      "meanMotionDdot": 0,
      "elementSetNo": 999,
      "revAtEpoch": 3372
    },
    {
      "objectName": "STARLINK-34955",
      "objectId": "2025-175U",
      "noradId": 65192,
      "epochUtc": "2026-03-16T19:18:57.354336Z",
      "meanMotionRevPerDay": 15.05658474,
      "eccentricity": 0.0001632,
      "inclinationDeg": 97.6023,
      "raanDeg": 309.7105,
      "argPerigeeDeg": 72.3518,
      "meanAnomalyDeg": 287.7887,
      "bstar": 0.0000051798,
      "meanMotionDot": 1.4e-7,
      "meanMotionDdot": 0,
      "elementSetNo": 999,
      "revAtEpoch": 3368
    },
    {
      "objectName": "STARLINK-34952",
      "objectId": "2025-175Z",
      "noradId": 65197,
      "epochUtc": "2026-03-16T14:19:53.681376Z",
      "meanMotionRevPerDay": 15.05650304,
      "eccentricity": 0.0001842,
      "inclinationDeg": 97.6034,
      "raanDeg": 309.525,
      "argPerigeeDeg": 61.3353,
      "meanAnomalyDeg": 298.8058,
      "bstar": 0.00029926,
      "meanMotionDot": 0.0000426,
      "meanMotionDdot": 0,
      "elementSetNo": 999,
      "revAtEpoch": 3368
    },
    {
      "objectName": "STARLINK-34821",
      "objectId": "2025-176B",
      "noradId": 65199,
      "epochUtc": "2026-03-16T19:43:25.921920Z",
      "meanMotionRevPerDay": 15.30203877,
      "eccentricity": 0.0001399,
      "inclinationDeg": 53.158,
      "raanDeg": 119.5134,
      "argPerigeeDeg": 96.2602,
      "meanAnomalyDeg": 263.8558,
      "bstar": 0.00051395,
      "meanMotionDot": 0.00014895,
      "meanMotionDdot": 0,
      "elementSetNo": 999,
      "revAtEpoch": 3415
    },
    {
      "objectName": "STARLINK-34914",
      "objectId": "2025-176F",
      "noradId": 65203,
      "epochUtc": "2026-03-16T19:38:52.916064Z",
      "meanMotionRevPerDay": 15.30197849,
      "eccentricity": 0.0001265,
      "inclinationDeg": 53.1576,
      "raanDeg": 119.4932,
      "argPerigeeDeg": 89.4434,
      "meanAnomalyDeg": 270.6711,
      "bstar": 0.00051406,
      "meanMotionDot": 0.00014895,
      "meanMotionDdot": 0,
      "elementSetNo": 999,
      "revAtEpoch": 3421
    },
    {
      "objectName": "STARLINK-34787",
      "objectId": "2025-176G",
      "noradId": 65204,
      "epochUtc": "2026-03-16T13:02:54.395232Z",
      "meanMotionRevPerDay": 15.30198647,
      "eccentricity": 0.0001275,
      "inclinationDeg": 53.158,
      "raanDeg": 120.6198,
      "argPerigeeDeg": 87.2695,
      "meanAnomalyDeg": 272.8452,
      "bstar": 0.0005998,
      "meanMotionDot": 0.00017446,
      "meanMotionDdot": 0,
      "elementSetNo": 999,
      "revAtEpoch": 3417
    },
    {
      "objectName": "STARLINK-34901",
      "objectId": "2025-176K",
      "noradId": 65207,
      "epochUtc": "2026-03-15T19:57:26.122176Z",
      "meanMotionRevPerDay": 15.30177983,
      "eccentricity": 0.00012085,
      "inclinationDeg": 53.1575,
      "raanDeg": 123.9957,
      "argPerigeeDeg": 61.9818,
      "meanAnomalyDeg": 298.1305,
      "bstar": 0.00081108842,
      "meanMotionDot": 0.00023723,
      "meanMotionDdot": 0,
      "elementSetNo": 999,
      "revAtEpoch": 3406
    },
    {
      "objectName": "STARLINK-34941",
      "objectId": "2025-176N",
      "noradId": 65210,
      "epochUtc": "2026-03-16T13:13:32.860992Z",
      "meanMotionRevPerDay": 15.30193621,
      "eccentricity": 0.0001215,
      "inclinationDeg": 53.1576,
      "raanDeg": 120.6676,
      "argPerigeeDeg": 78.0545,
      "meanAnomalyDeg": 282.0592,
      "bstar": 0.00052633,
      "meanMotionDot": 0.00015258,
      "meanMotionDdot": 0,
      "elementSetNo": 999,
      "revAtEpoch": 3417
    },
    {
      "objectName": "STARLINK-34871",
      "objectId": "2025-176V",
      "noradId": 65217,
      "epochUtc": "2026-03-15T19:46:47.863776Z",
      "meanMotionRevPerDay": 15.30180775,
      "eccentricity": 0.00013656,
      "inclinationDeg": 53.1585,
      "raanDeg": 123.9488,
      "argPerigeeDeg": 65.7919,
      "meanAnomalyDeg": 294.3224,
      "bstar": 0.00085798851,
      "meanMotionDot": 0.00025123,
      "meanMotionDdot": 0,
      "elementSetNo": 999,
      "revAtEpoch": 3406
    },
    {
      "objectName": "STARLINK-34968",
      "objectId": "2025-184D",
      "noradId": 65276,
      "epochUtc": "2026-03-16T14:53:46.289760Z",
      "meanMotionRevPerDay": 15.05659643,
      "eccentricity": 0.0001079,
      "inclinationDeg": 97.6061,
      "raanDeg": 129.4924,
      "argPerigeeDeg": 92.963,
      "meanAnomalyDeg": 267.172,
      "bstar": -0.000067949,
      "meanMotionDot": -0.00001041,
      "meanMotionDdot": 0,
      "elementSetNo": 999,
      "revAtEpoch": 3234
    },
    {
      "objectName": "STARLINK-35023",
      "objectId": "2025-184G",
      "noradId": 65279,
      "epochUtc": "2026-03-16T13:30:02.640384Z",
      "meanMotionRevPerDay": 15.05647242,
      "eccentricity": 0.0000871,
      "inclinationDeg": 97.6034,
      "raanDeg": 129.4151,
      "argPerigeeDeg": 107.1314,
      "meanAnomalyDeg": 253.0008,
      "bstar": 0.00023063,
      "meanMotionDot": 0.00003268,
      "meanMotionDdot": 0,
      "elementSetNo": 999,
      "revAtEpoch": 3233
    },
    {
      "objectName": "STARLINK-35001",
      "objectId": "2025-184H",
      "noradId": 65280,
      "epochUtc": "2026-03-16T14:41:49.786656Z",
      "meanMotionRevPerDay": 15.05644346,
      "eccentricity": 0.0001155,
      "inclinationDeg": 97.604,
      "raanDeg": 129.5039,
      "argPerigeeDeg": 92.9765,
      "meanAnomalyDeg": 267.1594,
      "bstar": 0.000096102,
      "meanMotionDot": 0.00001326,
      "meanMotionDdot": 0,
      "elementSetNo": 999,
      "revAtEpoch": 3234
    },
    {
      "objectName": "STARLINK-35010",
      "objectId": "2025-184J",
      "noradId": 65281,
      "epochUtc": "2026-03-16T20:52:38.470080Z",
      "meanMotionRevPerDay": 15.05644719,
      "eccentricity": 0.0000796,
      "inclinationDeg": 97.6034,
      "raanDeg": 129.7746,
      "argPerigeeDeg": 147.9116,
      "meanAnomalyDeg": 212.2159,
      "bstar": -0.00039579,
      "meanMotionDot": -0.00005766,
      "meanMotionDdot": 0,
      "elementSetNo": 999,
      "revAtEpoch": 3238
    },
    {
      "objectName": "STARLINK-35017",
      "objectId": "2025-184V",
      "noradId": 65292,
      "epochUtc": "2026-03-16T20:40:42.439584Z",
      "meanMotionRevPerDay": 15.05643299,
      "eccentricity": 0.0000921,
      "inclinationDeg": 97.6038,
      "raanDeg": 129.7861,
      "argPerigeeDeg": 113.5811,
      "meanAnomalyDeg": 246.5512,
      "bstar": 0.00014925,
      "meanMotionDot": 0.00002093,
      "meanMotionDdot": 0,
      "elementSetNo": 999,
      "revAtEpoch": 3233
    },
    {
      "objectName": "STARLINK-34951",
      "objectId": "2025-184W",
      "noradId": 65293,
      "epochUtc": "2026-03-16T18:13:09.493824Z",
      "meanMotionRevPerDay": 15.05646944,
      "eccentricity": 0.0000645,
      "inclinationDeg": 97.6034,
      "raanDeg": 129.6157,
      "argPerigeeDeg": 93.847,
      "meanAnomalyDeg": 266.283,
      "bstar": 0.00022919,
      "meanMotionDot": 0.00003247,
      "meanMotionDdot": 0,
      "elementSetNo": 999,
      "revAtEpoch": 3236
    },
    {
      "objectName": "STARLINK-34613",
      "objectId": "2025-184X",
      "noradId": 65294,
      "epochUtc": "2026-03-16T13:42:00.405792Z",
      "meanMotionRevPerDay": 15.05644967,
      "eccentricity": 0.0000854,
      "inclinationDeg": 97.603,
      "raanDeg": 129.404,
      "argPerigeeDeg": 88.463,
      "meanAnomalyDeg": 271.6694,
      "bstar": 0.00019671,
      "meanMotionDot": 0.00002778,
      "meanMotionDdot": 0,
      "elementSetNo": 999,
      "revAtEpoch": 3233
    },
    {
      "objectName": "STARLINK-34872",
      "objectId": "2025-184Z",
      "noradId": 65296,
      "epochUtc": "2026-03-16T13:53:57.893856Z",
      "meanMotionRevPerDay": 15.05653427,
      "eccentricity": 0.0000796,
      "inclinationDeg": 97.6012,
      "raanDeg": 129.3912,
      "argPerigeeDeg": 94.052,
      "meanAnomalyDeg": 266.0798,
      "bstar": 0.00026581,
      "meanMotionDot": 0.00003777,
      "meanMotionDdot": 0,
      "elementSetNo": 999,
      "revAtEpoch": 3233
    }
  ]
}
